BEIDOU-2 IGSO-1 (C06)   
1 36828U 10036A   23122.54378294 -.00000065  00000+0  00000+0 0  9999
2 36828  54.2067 173.3167 0035522 191.8478 157.9591  1.00258736 46779
BEIDOU-3 G3 (C61)       
1 45807U 20040A   23121.89001399 -.00000347  00000+0  00000+0 0  9991
2 45807   0.7840 323.3974 0006185 327.6902 359.4661  1.00273449 10628
BEIDOU-2 M3 (C11)       
1 38250U 12018A   23121.82080889 -.00000066  00000+0  00000+0 0  9993
2 38250  56.5736 343.0297 0020923 262.5436 278.4076  1.86231224 75010
BEIDOU-3S IGSO-1S (C31) 
1 40549U 15019A   23121.36226322 -.00000160  00000+0  00000+0 0  9999
2 40549  51.3266 309.0432 0036758 191.1282 305.3776  1.00284843 29621
